;Tower_Layer_Gcode
EXTRUDER_REFILL
G1 X20 Y10.19
NOZZLE_HEIGHT_ADJUST
G1 F9600
G1 X20 Y20 E.25658
G1 F9600C
G1 X29.81 Y20 E.25658
G1 E-.21 F5400
;WIPE_START
G1 F9600
G1 X28.81 Y20 E-.09
;WIPE_END
G1 X23.71 Y25.679 F30000
G1 X20 Y29.81
G1 E.3 F5400
G1 F9600
G1 X20 Y20 E.25658
G1 F9600C
G1 X10.19 Y20 E.25658
G1 E-.21 F5400
;WIPE_START
G1 F9600
G1 X11.19 Y20 E-.09
;WIPE_END
G1 X17.943 Y23.556 F30000
G1 X29.8 Y29.8
G1 X29.8 Y29.398
G1 E.3 F5400
G1 F9600
;START_HERE
G1 X10.602 Y29.398 E.60441
G1 F9600C
G1 X10.602 Y10.602 E.60441
G1 F9600C
G1 X29.398 Y10.602 E.60441
G1 F9600C
G1 X29.398 Y29.338 E.60248
G1 X29.79 Y29.79
G1 F9600
G1 X10.21 Y29.79 E.58322
G1 F9600C
G1 X10.21 Y10.21 E.58322
G1 F9600C
G1 X29.79 Y10.21 E.58322
G1 F9600C
G1 X29.79 Y29.73 E.58143
;END_HERE
G92 E0
G1 E-.21 F5400
;WIPE_START
G1 F9600
G1 X28.8 Y29.762 E-.1
;WIPE_END
G1 F9600
G1 X29.7 Y29.762 E.05
EXTRUDER_RETRACT
G1 X28.7 Y29.76
TOWER_ZP_ST
;Tower_Layer_Gcode Finished
